{"type": "FeatureCollection", "features": [ {"type": "Feature", "properties": {"norad_id": 30332, "name": "FENGYUN 1C DEB", "group": "fengyun-1c-debris", "lat": 19.590606196572345, "lon": -33.018985859335444, "alt_km": 893.4111766028363, "timestamp": "2025-12-24T16:52:41.807712+00:00", "meta": {"OBJECT_NAME": "FENGYUN 1C DEB", "OBJECT_ID": "1999-025AAT", "EPOCH": "2025-12-23T11:41:21.508800", "MEAN_MOTION": 13.76718923, "ECCENTRICITY": 0.01782084, "INCLINATION": 99.7164, "RA_OF_ASC_NODE": 329.2351, "ARG_OF_PERICENTER": 75.1626, "MEAN_ANOMALY": 41.8322, "EPHEMERIS_TYPE": 0, "CLASSIFICATION_TYPE": "U", "NORAD_CAT_ID": 30332, "ELEMENT_SET_NO": 999, "REV_AT_EPOCH": 94863, "BSTAR": 0.00039580741, "MEAN_MOTION_DOT": 3.92e-06, "MEAN_MOTION_DDOT": 0}, "tle": {"line1": "1 30332U 99025AAT 25357.48705450  .00000392  00000+0  39581-3 0  9993", "line2": "2 30332  99.7164 329.2351 0178208  75.1626  41.8322 13.76718923948634"}}, "geometry": {"type": "Point", "coordinates": [-33.018985859335444, 19.590606196572345]}}, {"type": "Feature", "properties": {"norad_id": 30334, "name": "FENGYUN 1C DEB", "group": "fengyun-1c-debris", "lat": -72.94550740416557, "lon": 129.1617871770854, "alt_km": 830.7270553081989, "timestamp": "2025-12-24T16:52:41.807722+00:00", "meta": {"OBJECT_NAME": "FENGYUN 1C DEB", "OBJECT_ID": "1999-025AAV", "EPOCH": "2025-12-24T05:18:05.825664", "MEAN_MOTION": 13.92413676, "ECCENTRICITY": 0.0145106, "INCLINATION": 99.0211, "RA_OF_ASC_NODE": 97.5041, "ARG_OF_PERICENTER": 310.2762, "MEAN_ANOMALY": 78.3552, "EPHEMERIS_TYPE": 0, "CLASSIFICATION_TYPE": "U", "NORAD_CAT_ID": 30334, "ELEMENT_SET_NO": 999, "REV_AT_EPOCH": 95381, "BSTAR": 0.0012832447, "MEAN_MOTION_DOT": 1.755e-05, "MEAN_MOTION_DDOT": 0}, "tle": {"line1": "1 30334U 99025AAV 25358.22090076  .00001755  00000+0  12832-2 0  9992", "line2": "2 30334  99.0211  97.5041 0145106 310.2762  78.3552 13.92413676953819"}}, "geometry": {"type": "Point", "coordinates": [129.1617871770854, -72.94550740416557]}}, {"type": "Feature", "properties": {"norad_id": 30335, "name": "FENGYUN 1C DEB", "group": "fengyun-1c-debris", "lat": 17.583287494267644, "lon": 172.55751418525594, "alt_km": 845.507428357032, "timestamp": "2025-12-24T16:52:41.807732+00:00", "meta": {"OBJECT_NAME": "FENGYUN 1C DEB", "OBJECT_ID": "1999-025AAW", "EPOCH": "2025-12-23T23:04:51.227328", "MEAN_MOTION": 14.01362375, "ECCENTRICITY": 0.0133344, "INCLINATION": 98.9049, "RA_OF_ASC_NODE": 348.9861, "ARG_OF_PERICENTER": 100.4085, "MEAN_ANOMALY": 281.2865, "EPHEMERIS_TYPE": 0, "CLASSIFICATION_TYPE": "U", "NORAD_CAT_ID": 30335, "ELEMENT_SET_NO": 999, "REV_AT_EPOCH": 96748, "BSTAR": -4.1022e-07, "MEAN_MOTION_DOT": -4.3e-07, "MEAN_MOTION_DDOT": 0}, "tle": {"line1": "1 30335U 99025AAW 25357.96170402 -.00000043  00000+0 -41022-6 0  9993", "line2": "2 30335  98.9049 348.9861 0133344 100.4085 281.2865 14.01362375967488"}}, "geometry": {"type": "Point", "coordinates": [172.55751418525594, 17.583287494267644]}}, {"type": "Feature", "properties": {"norad_id": 30336, "name": "FENGYUN 1C DEB", "group": "fengyun-1c-debris", "lat": 56.72797190606167, "lon": 5.968973042953459, "alt_km": 818.7653780430792, "timestamp": "2025-12-24T16:52:41.807742+00:00", "meta": {"OBJECT_NAME": "FENGYUN 1C DEB", "OBJECT_ID": "1999-025AAX", "EPOCH": "2025-12-23T19:27:08.769888", "MEAN_MOTION": 14.19320722, "ECCENTRICITY": 0.0043003, "INCLINATION": 98.5997, "RA_OF_ASC_NODE": 18.4359, "ARG_OF_PERICENTER": 336.4428, "MEAN_ANOMALY": 201.914, "EPHEMERIS_TYPE": 0, "CLASSIFICATION_TYPE": "U", "NORAD_CAT_ID": 30336, "ELEMENT_SET_NO": 999, "REV_AT_EPOCH": 97759, "BSTAR": 0.00029983196, "MEAN_MOTION_DOT": 5.92e-06, "MEAN_MOTION_DDOT": 0}, "tle": {"line1": "1 30336U 99025AAX 25357.81051817  .00000592  00000+0  29983-3 0  9992", "line2": "2 30336  98.5997  18.4359 0043003 336.4428 201.9140 14.19320722977599"}}, "geometry": {"type": "Point", "coordinates": [5.968973042953459, 56.72797190606167]}}, {"type": "Feature", "properties": {"norad_id": 30338, "name": "FENGYUN 1C DEB", "group": "fengyun-1c-debris", "lat": -38.2168867993852, "lon": -118.29841126464355, "alt_km": 641.9597071174121, "timestamp": "2025-12-24T16:52:41.807752+00:00", "meta": {"OBJECT_NAME": "FENGYUN 1C DEB", "OBJECT_ID": "1999-025AAZ", "EPOCH": "2025-12-24T04:24:09.545184", "MEAN_MOTION": 14.47653192, "ECCENTRICITY": 0.02721284, "INCLINATION": 98.4576, "RA_OF_ASC_NODE": 67.9093, "ARG_OF_PERICENTER": 159.173, "MEAN_ANOMALY": 229.2575, "EPHEMERIS_TYPE": 0, "CLASSIFICATION_TYPE": "U", "NORAD_CAT_ID": 30338, "ELEMENT_SET_NO": 999, "REV_AT_EPOCH": 98310, "BSTAR": 0.0011254198, "MEAN_MOTION_DOT": 6.577e-05, "MEAN_MOTION_DDOT": 0}, "tle": {"line1": "1 30338U 99025AAZ 25358.18344381  .00006577  00000+0  11254-2 0  9996", "line2": "2 30338  98.4576  67.9093 0272128 159.1730 229.2575 14.47653192983105"}}, "geometry": {"type": "Point", "coordinates": [-118.29841126464355, -38.2168867993852]}}, {"type": "Feature", "properties": {"norad_id": 30339, "name": "FENGYUN 1C DEB", "group": "fengyun-1c-debris", "lat": 37.68513859866556, "lon": 98.65389589711614, "alt_km": 747.8471134523325, "timestamp": "2025-12-24T16:52:41.807763+00:00", "meta": {"OBJECT_NAME": "FENGYUN 1C DEB", "OBJECT_ID": "1999-025ABA", "EPOCH": "2025-12-24T05:18:17.831808", "MEAN_MOTION": 14.38318, "ECCENTRICITY": 0.00189512, "INCLINATION": 98.9732, "RA_OF_ASC_NODE": 105.1611, "ARG_OF_PERICENTER": 48.0606, "MEAN_ANOMALY": 14.789, "EPHEMERIS_TYPE": 0, "CLASSIFICATION_TYPE": "U", "NORAD_CAT_ID": 30339, "ELEMENT_SET_NO": 999, "REV_AT_EPOCH": 97592, "BSTAR": 0.0026266119, "MEAN_MOTION_DOT": 7.973e-05, "MEAN_MOTION_DDOT": 0}, "tle": {"line1": "1 30339U 99025ABA 25358.22103972  .00007973  00000+0  26266-2 0  9991", "line2": "2 30339  98.9732 105.1611 0018951  48.0606  14.7890 14.38318000975920"}}, "geometry": {"type": "Point", "coordinates": [98.65389589711614, 37.68513859866556]}}, {"type": "Feature", "properties": {"norad_id": 30340, "name": "FENGYUN 1C DEB", "group": "fengyun-1c-debris", "lat": -74.93359379860608, "lon": -160.7380420895014, "alt_km": 981.9915256951945, "timestamp": "2025-12-24T16:52:41.807773+00:00", "meta": {"OBJECT_NAME": "FENGYUN 1C DEB", "OBJECT_ID": "1999-025ABB", "EPOCH": "2025-12-24T02:16:32.588832", "MEAN_MOTION": 14.04605418, "ECCENTRICITY": 0.01462965, "INCLINATION": 98.9998, "RA_OF_ASC_NODE": 54.7254, "ARG_OF_PERICENTER": 103.4326, "MEAN_ANOMALY": 318.794, "EPHEMERIS_TYPE": 0, "CLASSIFICATION_TYPE": "U", "NORAD_CAT_ID": 30340, "ELEMENT_SET_NO": 999, "REV_AT_EPOCH": 96940, "BSTAR": 0.00022616681, "MEAN_MOTION_DOT": 3.55e-06, "MEAN_MOTION_DDOT": 0}, "tle": {"line1": "1 30340U 99025ABB 25358.09482163  .00000355  00000+0  22617-3 0  9994", "line2": "2 30340  98.9998  54.7254 0146296 103.4326 318.7940 14.04605418969401"}}, "geometry": {"type": "Point", "coordinates": [-160.7380420895014, -74.93359379860608]}}, {"type": "Feature", "properties": {"norad_id": 30341, "name": "FENGYUN 1C DEB", "group": "fengyun-1c-debris", "lat": -62.535280123618435, "lon": -94.2644776956055, "alt_km": 782.9115252242163, "timestamp": "2025-12-24T16:52:41.807784+00:00", "meta": {"OBJECT_NAME": "FENGYUN 1C DEB", "OBJECT_ID": "1999-025ABC", "EPOCH": "2025-12-24T04:28:51.470976", "MEAN_MOTION": 14.3427834, "ECCENTRICITY": 0.00522113, "INCLINATION": 99.2191, "RA_OF_ASC_NODE": 246.9775, "ARG_OF_PERICENTER": 25.2916, "MEAN_ANOMALY": 125.6563, "EPHEMERIS_TYPE": 0, "CLASSIFICATION_TYPE": "U", "NORAD_CAT_ID": 30341, "ELEMENT_SET_NO": 999, "REV_AT_EPOCH": 97245, "BSTAR": 0.0033931072, "MEAN_MOTION_DOT": 9.636e-05, "MEAN_MOTION_DDOT": 0}, "tle": {"line1": "1 30341U 99025ABC 25358.18670684  .00009636  00000+0  33931-2 0  9993", "line2": "2 30341  99.2191 246.9775 0052211  25.2916 125.6563 14.34278340972451"}}, "geometry": {"type": "Point", "coordinates": [-94.2644776956055, -62.535280123618435]}}, {"type": "Feature", "properties": {"norad_id": 30342, "name": "FENGYUN 1C DEB", "group": "fengyun-1c-debris", "lat": -59.729482697811726, "lon": -162.9333222314358, "alt_km": 1080.5991802809822, "timestamp": "2025-12-24T16:52:41.807794+00:00", "meta": {"OBJECT_NAME": "FENGYUN 1C DEB", "OBJECT_ID": "1999-025ABD", "EPOCH": "2025-12-24T02:06:08.625312", "MEAN_MOTION": 13.80059503, "ECCENTRICITY": 0.0168267, "INCLINATION": 100.1958, "RA_OF_ASC_NODE": 178.4448, "ARG_OF_PERICENTER": 93.52, "MEAN_ANOMALY": 28.9131, "EPHEMERIS_TYPE": 0, "CLASSIFICATION_TYPE": "U", "NORAD_CAT_ID": 30342, "ELEMENT_SET_NO": 999, "REV_AT_EPOCH": 95045, "BSTAR": 0.00057263386, "MEAN_MOTION_DOT": 6.12e-06, "MEAN_MOTION_DDOT": 0}, "tle": {"line1": "1 30342U 99025ABD 25358.08759983  .00000612  00000+0  57263-3 0  9993", "line2": "2 30342 100.1958 178.4448 0168267  93.5200  28.9131 13.80059503950454"}}, "geometry": {"type": "Point", "coordinates": [-162.9333222314358, -59.729482697811726]}}, {"type": "Feature", "properties": {"norad_id": 30344, "name": "FENGYUN 1C DEB", "group": "fengyun-1c-debris", "lat": -53.31734519107721, "lon": -110.67616304333212, "alt_km": 730.2829529397613, "timestamp": "2025-12-24T16:52:41.807805+00:00", "meta": {"OBJECT_NAME": "FENGYUN 1C DEB", "OBJECT_ID": "1999-025ABF", "EPOCH": "2025-12-24T04:29:37.421088", "MEAN_MOTION": 14.51954258, "ECCENTRICITY": 0.00068708, "INCLINATION": 98.8195, "RA_OF_ASC_NODE": 80.8125, "ARG_OF_PERICENTER": 88.9196, "MEAN_ANOMALY": 329.4909, "EPHEMERIS_TYPE": 0, "CLASSIFICATION_TYPE": "U", "NORAD_CAT_ID": 30344, "ELEMENT_SET_NO": 999, "REV_AT_EPOCH": 98243, "BSTAR": 0.002583119, "MEAN_MOTION_DOT": 0.00010394, "MEAN_MOTION_DDOT": 0}, "tle": {"line1": "1 30344U 99025ABF 25358.18723867  .00010394  00000+0  25831-2 0  9991", "line2": "2 30344  98.8195  80.8125 0006870  88.9196 329.4909 14.51954258982438"}}, "geometry": {"type": "Point", "coordinates": [-110.67616304333212, -53.31734519107721]}}]}